{
    "links": {
        "self": "http://www.neowsapp.com/rest/v1/neo/3795139?api_key=iIulBulltgU6a56xZRHN4H3l9WmuAYTsLGpBGhQ2"
    },
    "id": "3795139",
    "neo_reference_id": "3795139",
    "name": "(2017 YV7)",
    "designation": "2017 YV7",
    "nasa_jpl_url": "http://ssd.jpl.nasa.gov/sbdb.cgi?sstr=3795139",
    "absolute_magnitude_h": 22.1,
    "estimated_diameter": {
        "kilometers": {
            "estimated_diameter_min": 0.1010543415,
            "estimated_diameter_max": 0.2259643771
        },
        "meters": {
            "estimated_diameter_min": 101.054341542,
            "estimated_diameter_max": 225.9643771094
        },
        "miles": {
            "estimated_diameter_min": 0.0627922373,
            "estimated_diameter_max": 0.140407711
        },
        "feet": {
            "estimated_diameter_min": 331.5431259047,
            "estimated_diameter_max": 741.3529669956
        }
    },
    "is_potentially_hazardous_asteroid": false,
    "close_approach_data": [
        {
            "close_approach_date": "2017-12-27",
            "close_approach_date_full": "2017-Dec-27 18:35",
            "epoch_date_close_approach": 1514399700000,
            "relative_velocity": {
                "kilometers_per_second": "16.79994609",
                "kilometers_per_hour": "60479.8059241159",
                "miles_per_hour": "37579.799408793"
            },
            "miss_distance": {
                "astronomical": "0.1070877776",
                "lunar": "41.6571454864",
                "kilometers": "16020103.431993712",
                "miles": "9954430.6795567456"
            },
            "orbiting_body": "Earth"
        }
    ],
    "orbital_data": {
        "orbit_id": "5",
        "orbit_determination_date": "2018-01-21 06:55:38",
        "first_observation_date": "2017-12-29",
        "last_observation_date": "2018-01-20",
        "data_arc_in_days": 22,
        "observations_used": 29,
        "orbit_uncertainty": "7",
        "minimum_orbit_intersection": ".10131",
        "jupiter_tisserand_invariant": "3.024",
        "epoch_osculation": "2459000.5",
        "eccentricity": ".6221461047528907",
        "semi_major_axis": "2.570386301638603",
        "inclination": "24.72248879171251",
        "ascending_node_longitude": "105.1425673553899",
        "orbital_period": "1505.206288168163",
        "perihelion_distance": ".9712304763639577",
        "perihelion_argument": "312.3641612977162",
        "aphelion_distance": "4.16954212691325",
        "perihelion_time": "2459586.608493465105",
        "mean_anomaly": "219.8205047998944",
        "mean_motion": ".2391698751392543",
        "equinox": "J2000",
        "orbit_class": {
            "orbit_class_type": "APO",
            "orbit_class_description": "Near-Earth asteroid orbits which cross the Earth’s orbit similar to that of 1862 Apollo",
            "orbit_class_range": "a (semi-major axis) > 1.0 AU; q (perihelion) < 1.017 AU"
        }
    },
    "is_sentry_object": false
}